{
  "type": "FeatureCollection",
  "features": [
    {
      "type": "Feature",
      "properties": {
        "norad_id": 15362,
        "name": "NOVA 3",
        "group": "nnss",
        "lat": -49.7101213210634,
        "lon": 80.80305963258229,
        "alt_km": 1157.697275182505,
        "timestamp": "2025-12-23T07:45:09.673003+00:00",
        "meta_object_name": "NOVA 3",
        "meta_object_id": "1984-110A",
        "meta_epoch": "2025-12-22T19:54:34.624224",
        "meta_mean_motion": 13.23045769,
        "meta_eccentricity": 0.00299327,
        "meta_inclination": 90.1219,
        "meta_ra_of_asc_node": 80.6534,
        "meta_arg_of_pericenter": 302.8865,
        "meta_mean_anomaly": 178.452,
        "meta_ephemeris_type": 0,
        "meta_classification_type": "U",
        "meta_norad_cat_id": 15362,
        "meta_element_set_no": 999,
        "meta_rev_at_epoch": 98832,
        "meta_bstar": 0.00022585614,
        "meta_mean_motion_dot": 1.03e-06,
        "meta_mean_motion_ddot": 0,
        "tle_line1": "1 15362U 84110A   25356.82956741  .00000103  00000+0  22586-3 0  9993",
        "tle_line2": "2 15362  90.1219  80.6534 0029932 302.8865 178.4520 13.23045769988321"
      },
      "geometry": {
        "type": "Point",
        "coordinates": [
          80.80305963258229,
          -49.7101213210634
        ]
      }
    },
    {
      "type": "Feature",
      "properties": {
        "norad_id": 15935,
        "name": "OSCAR 30",
        "group": "nnss",
        "lat": 11.126817630289704,
        "lon": -79.94731416320893,
        "alt_km": 1175.9819422844075,
        "timestamp": "2025-12-23T07:45:09.673013+00:00",
        "meta_object_name": "OSCAR 30",
        "meta_object_id": "1985-066A",
        "meta_epoch": "2025-12-22T20:45:25.028064",
        "meta_mean_motion": 13.36079881,
        "meta_eccentricity": 0.01690263,
        "meta_inclination": 90.1653,
        "meta_ra_of_asc_node": 100.0127,
        "meta_arg_of_pericenter": 55.6175,
        "meta_mean_anomaly": 68.9897,
        "meta_ephemeris_type": 0,
        "meta_classification_type": "U",
        "meta_norad_cat_id": 15935,
        "meta_element_set_no": 999,
        "meta_rev_at_epoch": 96588,
        "meta_bstar": 0.00016448465,
        "meta_mean_motion_dot": 1.01e-06,
        "meta_mean_motion_ddot": 0,
        "tle_line1": "1 15935U 85066A   25356.86487301  .00000101  00000+0  16448-3 0  9993",
        "tle_line2": "2 15935  90.1653 100.0127 0169026  55.6175  68.9897 13.36079881965882"
      },
      "geometry": {
        "type": "Point",
        "coordinates": [
          -79.94731416320893,
          11.126817630289704
        ]
      }
    },
    {
      "type": "Feature",
      "properties": {
        "norad_id": 15936,
        "name": "OSCAR 24",
        "group": "nnss",
        "lat": -57.10019577748881,
        "lon": -87.78438775987236,
        "alt_km": 1259.029941908795,
        "timestamp": "2025-12-23T07:45:09.673024+00:00",
        "meta_object_name": "OSCAR 24",
        "meta_object_id": "1985-066B",
        "meta_epoch": "2025-12-22T17:00:50.070240",
        "meta_mean_motion": 13.35937122,
        "meta_eccentricity": 0.01701816,
        "meta_inclination": 90.1791,
        "meta_ra_of_asc_node": 92.4818,
        "meta_arg_of_pericenter": 62.4983,
        "meta_mean_anomaly": 102.6279,
        "meta_ephemeris_type": 0,
        "meta_classification_type": "U",
        "meta_norad_cat_id": 15936,
        "meta_element_set_no": 999,
        "meta_rev_at_epoch": 96776,
        "meta_bstar": 0.00014928667,
        "meta_mean_motion_dot": 9.3e-07,
        "meta_mean_motion_ddot": 0,
        "tle_line1": "1 15936U 85066B   25356.70891285  .00000093  00000+0  14929-3 0  9999",
        "tle_line2": "2 15936  90.1791  92.4818 0170181  62.4983 102.6279 13.35937122967763"
      },
      "geometry": {
        "type": "Point",
        "coordinates": [
          -87.78438775987236,
          -57.10019577748881
        ]
      }
    },
    {
      "type": "Feature",
      "properties": {
        "norad_id": 17070,
        "name": "POLAR BEAR",
        "group": "nnss",
        "lat": 50.84283434185367,
        "lon": 2.8791901746854385,
        "alt_km": 952.9534852925954,
        "timestamp": "2025-12-23T07:45:09.673034+00:00",
        "meta_object_name": "POLAR BEAR",
        "meta_object_id": "1986-088A",
        "meta_epoch": "2025-12-22T18:57:32.537088",
        "meta_mean_motion": 13.75252809,
        "meta_eccentricity": 0.00412955,
        "meta_inclination": 89.617,
        "meta_ra_of_asc_node": 183.3713,
        "meta_arg_of_pericenter": 90.332,
        "meta_mean_anomaly": 280.8832,
        "meta_ephemeris_type": 0,
        "meta_classification_type": "U",
        "meta_norad_cat_id": 17070,
        "meta_element_set_no": 999,
        "meta_rev_at_epoch": 96117,
        "meta_bstar": 9.0388207e-05,
        "meta_mean_motion_dot": 9.9e-07,
        "meta_mean_motion_ddot": 0,
        "tle_line1": "1 17070U 86088A   25356.78995992  .00000099  00000+0  90388-4 0  9993",
        "tle_line2": "2 17070  89.6170 183.3713 0041295  90.3320 280.8832 13.75252809961179"
      },
      "geometry": {
        "type": "Point",
        "coordinates": [
          2.8791901746854385,
          50.84283434185367
        ]
      }
    },
    {
      "type": "Feature",
      "properties": {
        "norad_id": 18361,
        "name": "OSCAR 27",
        "group": "nnss",
        "lat": -47.30903880836585,
        "lon": 80.07354387528638,
        "alt_km": 1135.4184448316173,
        "timestamp": "2025-12-23T07:45:09.673045+00:00",
        "meta_object_name": "OSCAR 27",
        "meta_object_id": "1987-080A",
        "meta_epoch": "2025-12-22T19:29:31.902720",
        "meta_mean_motion": 13.4490871,
        "meta_eccentricity": 0.01037536,
        "meta_inclination": 90.3738,
        "meta_ra_of_asc_node": 79.649,
        "meta_arg_of_pericenter": 194.7719,
        "meta_mean_anomaly": 165.0392,
        "meta_ephemeris_type": 0,
        "meta_classification_type": "U",
        "meta_norad_cat_id": 18361,
        "meta_element_set_no": 999,
        "meta_rev_at_epoch": 87692,
        "meta_bstar": 0.00017203932,
        "meta_mean_motion_dot": 1.12e-06,
        "meta_mean_motion_ddot": 0,
        "tle_line1": "1 18361U 87080A   25356.81217480  .00000112  00000+0  17204-3 0  9994",
        "tle_line2": "2 18361  90.3738  79.6490 0103753 194.7719 165.0392 13.44908710876928"
      },
      "geometry": {
        "type": "Point",
        "coordinates": [
          80.07354387528638,
          -47.30903880836585
        ]
      }
    },
    {
      "type": "Feature",
      "properties": {
        "norad_id": 18362,
        "name": "OSCAR 29",
        "group": "nnss",
        "lat": -52.38841242221275,
        "lon": 80.61486705326134,
        "alt_km": 1100.54298833565,
        "timestamp": "2025-12-23T07:45:09.673055+00:00",
        "meta_object_name": "OSCAR 29",
        "meta_object_id": "1987-080B",
        "meta_epoch": "2025-12-22T20:08:15.720576",
        "meta_mean_motion": 13.44450285,
        "meta_eccentricity": 0.01045724,
        "meta_inclination": 90.375,
        "meta_ra_of_asc_node": 80.1097,
        "meta_arg_of_pericenter": 217.9075,
        "meta_mean_anomaly": 267.5994,
        "meta_ephemeris_type": 0,
        "meta_classification_type": "U",
        "meta_norad_cat_id": 18362,
        "meta_element_set_no": 999,
        "meta_rev_at_epoch": 87645,
        "meta_bstar": 0.00017076308,
        "meta_mean_motion_dot": 1.1e-06,
        "meta_mean_motion_ddot": 0,
        "tle_line1": "1 18362U 87080B   25356.83907084  .00000110  00000+0  17076-3 0  9998",
        "tle_line2": "2 18362  90.3750  80.1097 0104572 217.9075 267.5994 13.44450285876459"
      },
      "geometry": {
        "type": "Point",
        "coordinates": [
          80.61486705326134,
          -52.38841242221275
        ]
      }
    },
    {
      "type": "Feature",
      "properties": {
        "norad_id": 19070,
        "name": "OSCAR 23",
        "group": "nnss",
        "lat": 11.315374735514666,
        "lon": -163.21549402266814,
        "alt_km": 1019.8261633147604,
        "timestamp": "2025-12-23T07:45:09.673066+00:00",
        "meta_object_name": "OSCAR 23",
        "meta_object_id": "1988-033A",
        "meta_epoch": "2025-12-22T19:07:39.023616",
        "meta_mean_motion": 13.27788756,
        "meta_eccentricity": 0.01903326,
        "meta_inclination": 90.3204,
        "meta_ra_of_asc_node": 16.704,
        "meta_arg_of_pericenter": 152.0139,
        "meta_mean_anomaly": 22.822,
        "meta_ephemeris_type": 0,
        "meta_classification_type": "U",
        "meta_norad_cat_id": 19070,
        "meta_element_set_no": 999,
        "meta_rev_at_epoch": 82386,
        "meta_bstar": 0.00014372117,
        "meta_mean_motion_dot": 8.1e-07,
        "meta_mean_motion_ddot": 0,
        "tle_line1": "1 19070U 88033A   25356.79697944  .00000081  00000+0  14372-3 0  9993",
        "tle_line2": "2 19070  90.3204  16.7040 0190332 152.0139  22.8220 13.27788756823861"
      },
      "geometry": {
        "type": "Point",
        "coordinates": [
          -163.21549402266814,
          11.315374735514666
        ]
      }
    }
  ]
}